{"type": "FeatureCollection", "features": [ {"type": "Feature", "properties": {"norad_id": 66796, "name": "STARLINK-35964", "group": "last-30-days", "lat": 36.787969393536386, "lon": 26.06090065364162, "alt_km": 257.3272578286069, "timestamp": "2025-12-11T10:53:14.621507+00:00", "meta": {"OBJECT_NAME": "STARLINK-35964", "OBJECT_ID": "2025-278F", "EPOCH": "2025-12-11T04:00:01.998720", "MEAN_MOTION": 16.05275768, "ECCENTRICITY": 0.0001735, "INCLINATION": 42.9962, "RA_OF_ASC_NODE": 261.2585, "ARG_OF_PERICENTER": 264.7208, "MEAN_ANOMALY": 353.8333, "EPHEMERIS_TYPE": 0, "CLASSIFICATION_TYPE": "U", "NORAD_CAT_ID": 66796, "ELEMENT_SET_NO": 999, "REV_AT_EPOCH": 254, "BSTAR": -0.0019618, "MEAN_MOTION_DOT": -0.01425758, "MEAN_MOTION_DDOT": 0.00066551}, "tle": {"line1": "1 66796U 25278F   25345.16668980 -.01425758  66551-3 -19618-2 0  9998", "line2": "2 66796  42.9962 261.2585 0001735 264.7208 353.8333 16.05275768  2548"}}, "geometry": {"type": "Point", "coordinates": [26.06090065364162, 36.787969393536386]}}, {"type": "Feature", "properties": {"norad_id": 66797, "name": "STARLINK-36099", "group": "last-30-days", "lat": -33.73387551556298, "lon": 125.84101973806325, "alt_km": 303.38003085678247, "timestamp": "2025-12-11T10:53:14.621517+00:00", "meta": {"OBJECT_NAME": "STARLINK-36099", "OBJECT_ID": "2025-278G", "EPOCH": "2025-12-11T04:00:01.998720", "MEAN_MOTION": 15.90954508, "ECCENTRICITY": 0.0002002, "INCLINATION": 42.9983, "RA_OF_ASC_NODE": 261.8426, "ARG_OF_PERICENTER": 272.3319, "MEAN_ANOMALY": 117.0052, "EPHEMERIS_TYPE": 0, "CLASSIFICATION_TYPE": "U", "NORAD_CAT_ID": 66797, "ELEMENT_SET_NO": 999, "REV_AT_EPOCH": 276, "BSTAR": -0.0037803, "MEAN_MOTION_DOT": -0.01093923, "MEAN_MOTION_DDOT": 0}, "tle": {"line1": "1 66797U 25278G   25345.16668980 -.01093923  00000+0 -37803-2 0  9993", "line2": "2 66797  42.9983 261.8426 0002002 272.3319 117.0052 15.90954508  2769"}}, "geometry": {"type": "Point", "coordinates": [125.84101973806325, -33.73387551556298]}}, {"type": "Feature", "properties": {"norad_id": 66798, "name": "STARLINK-36041", "group": "last-30-days", "lat": -34.64660305895282, "lon": 127.92865744320504, "alt_km": 303.29824893759996, "timestamp": "2025-12-11T10:53:14.621529+00:00", "meta": {"OBJECT_NAME": "STARLINK-36041", "OBJECT_ID": "2025-278H", "EPOCH": "2025-12-11T04:00:01.998720", "MEAN_MOTION": 15.90991301, "ECCENTRICITY": 0.0001984, "INCLINATION": 42.9983, "RA_OF_ASC_NODE": 261.8377, "ARG_OF_PERICENTER": 272.1398, "MEAN_ANOMALY": 119.117, "EPHEMERIS_TYPE": 0, "CLASSIFICATION_TYPE": "U", "NORAD_CAT_ID": 66798, "ELEMENT_SET_NO": 999, "REV_AT_EPOCH": 254, "BSTAR": -0.0037661, "MEAN_MOTION_DOT": -0.01092114, "MEAN_MOTION_DDOT": 0}, "tle": {"line1": "1 66798U 25278H   25345.16668980 -.01092114  00000+0 -37661-2 0  9997", "line2": "2 66798  42.9983 261.8377 0001984 272.1398 119.1170 15.90991301  2540"}}, "geometry": {"type": "Point", "coordinates": [127.92865744320504, -34.64660305895282]}}, {"type": "Feature", "properties": {"norad_id": 66799, "name": "STARLINK-36044", "group": "last-30-days", "lat": -35.63643880459691, "lon": 130.34933031138965, "alt_km": 303.2522833499788, "timestamp": "2025-12-11T10:53:14.621539+00:00", "meta": {"OBJECT_NAME": "STARLINK-36044", "OBJECT_ID": "2025-278J", "EPOCH": "2025-12-11T04:00:01.998720", "MEAN_MOTION": 15.91035192, "ECCENTRICITY": 0.0001953, "INCLINATION": 42.9982, "RA_OF_ASC_NODE": 261.8322, "ARG_OF_PERICENTER": 273.8432, "MEAN_ANOMALY": 119.5907, "EPHEMERIS_TYPE": 0, "CLASSIFICATION_TYPE": "U", "NORAD_CAT_ID": 66799, "ELEMENT_SET_NO": 999, "REV_AT_EPOCH": 270, "BSTAR": -0.0037873, "MEAN_MOTION_DOT": -0.01099773, "MEAN_MOTION_DDOT": 0}, "tle": {"line1": "1 66799U 25278J   25345.16668980 -.01099773  00000+0 -37873-2 0  9991", "line2": "2 66799  42.9982 261.8322 0001953 273.8432 119.5907 15.91035192  2701"}}, "geometry": {"type": "Point", "coordinates": [130.34933031138965, -35.63643880459691]}}, {"type": "Feature", "properties": {"norad_id": 66800, "name": "STARLINK-35996", "group": "last-30-days", "lat": -37.45694382951509, "lon": 135.3482020478377, "alt_km": 303.02112152986865, "timestamp": "2025-12-11T10:53:14.621549+00:00", "meta": {"OBJECT_NAME": "STARLINK-35996", "OBJECT_ID": "2025-278K", "EPOCH": "2025-12-11T04:00:01.998720", "MEAN_MOTION": 15.91120744, "ECCENTRICITY": 0.0002019, "INCLINATION": 42.9982, "RA_OF_ASC_NODE": 261.821, "ARG_OF_PERICENTER": 273.5379, "MEAN_ANOMALY": 124.2337, "EPHEMERIS_TYPE": 0, "CLASSIFICATION_TYPE": "U", "NORAD_CAT_ID": 66800, "ELEMENT_SET_NO": 999, "REV_AT_EPOCH": 249, "BSTAR": -0.0038186, "MEAN_MOTION_DOT": -0.01253682, "MEAN_MOTION_DDOT": 0.00045297}, "tle": {"line1": "1 66800U 25278K   25345.16668980 -.01253682  45297-3 -38186-2 0  9994", "line2": "2 66800  42.9982 261.8210 0002019 273.5379 124.2337 15.91120744  2495"}}, "geometry": {"type": "Point", "coordinates": [135.3482020478377, -37.45694382951509]}}, {"type": "Feature", "properties": {"norad_id": 66801, "name": "STARLINK-36080", "group": "last-30-days", "lat": -40.9866527061404, "lon": 148.84034424350213, "alt_km": 302.5713913981608, "timestamp": "2025-12-11T10:53:14.621560+00:00", "meta": {"OBJECT_NAME": "STARLINK-36080", "OBJECT_ID": "2025-278L", "EPOCH": "2025-12-11T04:00:01.998720", "MEAN_MOTION": 15.91346589, "ECCENTRICITY": 0.0001993, "INCLINATION": 42.998, "RA_OF_ASC_NODE": 261.7932, "ARG_OF_PERICENTER": 275.155, "MEAN_ANOMALY": 133.4583, "EPHEMERIS_TYPE": 0, "CLASSIFICATION_TYPE": "U", "NORAD_CAT_ID": 66801, "ELEMENT_SET_NO": 999, "REV_AT_EPOCH": 270, "BSTAR": -0.0040207, "MEAN_MOTION_DOT": -0.01334629, "MEAN_MOTION_DDOT": 0.00050903}, "tle": {"line1": "1 66801U 25278L   25345.16668980 -.01334629  50903-3 -40207-2 0  9993", "line2": "2 66801  42.9980 261.7932 0001993 275.1550 133.4583 15.91346589  2709"}}, "geometry": {"type": "Point", "coordinates": [148.84034424350213, -40.9866527061404]}}, {"type": "Feature", "properties": {"norad_id": 66802, "name": "STARLINK-35604", "group": "last-30-days", "lat": -36.488339109607146, "lon": 132.5878687521017, "alt_km": 303.1592789147862, "timestamp": "2025-12-11T10:53:14.621570+00:00", "meta": {"OBJECT_NAME": "STARLINK-35604", "OBJECT_ID": "2025-278M", "EPOCH": "2025-12-11T04:00:01.998720", "MEAN_MOTION": 15.91072643, "ECCENTRICITY": 0.0001951, "INCLINATION": 42.9983, "RA_OF_ASC_NODE": 261.8272, "ARG_OF_PERICENTER": 273.7511, "MEAN_ANOMALY": 121.6495, "EPHEMERIS_TYPE": 0, "CLASSIFICATION_TYPE": "U", "NORAD_CAT_ID": 66802, "ELEMENT_SET_NO": 999, "REV_AT_EPOCH": 270, "BSTAR": -0.0037773, "MEAN_MOTION_DOT": -0.01237233, "MEAN_MOTION_DDOT": 0.00044195}, "tle": {"line1": "1 66802U 25278M   25345.16668980 -.01237233  44195-3 -37773-2 0  9997", "line2": "2 66802  42.9983 261.8272 0001951 273.7511 121.6495 15.91072643  2704"}}, "geometry": {"type": "Point", "coordinates": [132.5878687521017, -36.488339109607146]}}, {"type": "Feature", "properties": {"norad_id": 66803, "name": "STARLINK-35565", "group": "last-30-days", "lat": -38.213368282195134, "lon": 137.7005969767858, "alt_km": 302.94236877737876, "timestamp": "2025-12-11T10:53:14.621580+00:00", "meta": {"OBJECT_NAME": "STARLINK-35565", "OBJECT_ID": "2025-278N", "EPOCH": "2025-12-11T04:00:01.998720", "MEAN_MOTION": 15.91160673, "ECCENTRICITY": 0.0001968, "INCLINATION": 42.9983, "RA_OF_ASC_NODE": 261.8162, "ARG_OF_PERICENTER": 272.7763, "MEAN_ANOMALY": 126.9659, "EPHEMERIS_TYPE": 0, "CLASSIFICATION_TYPE": "U", "NORAD_CAT_ID": 66803, "ELEMENT_SET_NO": 999, "REV_AT_EPOCH": 279, "BSTAR": -0.0038208, "MEAN_MOTION_DOT": -0.01256954, "MEAN_MOTION_DDOT": 0.0004553}, "tle": {"line1": "1 66803U 25278N   25345.16668980 -.01256954  45530-3 -38208-2 0  9997", "line2": "2 66803  42.9983 261.8162 0001968 272.7763 126.9659 15.91160673  2799"}}, "geometry": {"type": "Point", "coordinates": [137.7005969767858, -38.213368282195134]}}, {"type": "Feature", "properties": {"norad_id": 66804, "name": "STARLINK-36038", "group": "last-30-days", "lat": -39.09041040862543, "lon": 140.70586951898363, "alt_km": 302.88514980860054, "timestamp": "2025-12-11T10:53:14.621592+00:00", "meta": {"OBJECT_NAME": "STARLINK-36038", "OBJECT_ID": "2025-278P", "EPOCH": "2025-12-11T04:00:01.998720", "MEAN_MOTION": 15.91210553, "ECCENTRICITY": 0.0001959, "INCLINATION": 42.9985, "RA_OF_ASC_NODE": 261.8101, "ARG_OF_PERICENTER": 275.5368, "MEAN_ANOMALY": 126.6736, "EPHEMERIS_TYPE": 0, "CLASSIFICATION_TYPE": "U", "NORAD_CAT_ID": 66804, "ELEMENT_SET_NO": 999, "REV_AT_EPOCH": 270, "BSTAR": -0.0038754, "MEAN_MOTION_DOT": -0.01277977, "MEAN_MOTION_DDOT": 0.00046956}, "tle": {"line1": "1 66804U 25278P   25345.16668980 -.01277977  46956-3 -38754-2 0  9995", "line2": "2 66804  42.9985 261.8101 0001959 275.5368 126.6736 15.91210553  2704"}}, "geometry": {"type": "Point", "coordinates": [140.70586951898363, -39.09041040862543]}}, {"type": "Feature", "properties": {"norad_id": 66805, "name": "STARLINK-36049", "group": "last-30-days", "lat": -40.40829874850722, "lon": 146.03247999534088, "alt_km": 302.7132940415304, "timestamp": "2025-12-11T10:53:14.621607+00:00", "meta": {"OBJECT_NAME": "STARLINK-36049", "OBJECT_ID": "2025-278Q", "EPOCH": "2025-12-11T04:00:01.998720", "MEAN_MOTION": 15.91299062, "ECCENTRICITY": 0.0001952, "INCLINATION": 42.9982, "RA_OF_ASC_NODE": 261.7992, "ARG_OF_PERICENTER": 276.9473, "MEAN_ANOMALY": 129.4957, "EPHEMERIS_TYPE": 0, "CLASSIFICATION_TYPE": "U", "NORAD_CAT_ID": 66805, "ELEMENT_SET_NO": 999, "REV_AT_EPOCH": 270, "BSTAR": -0.0039556, "MEAN_MOTION_DOT": -0.01310052, "MEAN_MOTION_DDOT": 0.00049177}, "tle": {"line1": "1 66805U 25278Q   25345.16668980 -.01310052  49177-3 -39556-2 0  9997", "line2": "2 66805  42.9982 261.7992 0001952 276.9473 129.4957 15.91299062  2702"}}, "geometry": {"type": "Point", "coordinates": [146.03247999534088, -40.40829874850722]}}]}